[{"OBJECT_NAME":"STARLINK-2466","OBJECT_ID":"2021-027AK","EPOCH":"2026-03-09T12:43:35.420448","MEAN_MOTION":15.30205487,"ECCENTRICITY":0.00014374,"INCLINATION":53.1608,"RA_OF_ASC_NODE":166.0309,"ARG_OF_PERICENTER":88.3719,"MEAN_ANOMALY":271.7447,"EPHEMERIS_TYPE":0,"CLASSIFICATION_TYPE":"U","NORAD_CAT_ID":48125,"ELEMENT_SET_NO":999,"REV_AT_EPOCH":27248,"BSTAR":0.00035181404,"MEAN_MOTION_DOT":0.00010076,"MEAN_MOTION_DDOT":0},{"OBJECT_NAME":"GEOSCAN 4 (RS92S4)","OBJECT_ID":"2025-155S","EPOCH":"2026-03-09T21:50:07.724832","MEAN_MOTION":15.30369837,"ECCENTRICITY":0.00070968,"INCLINATION":97.4465,"RA_OF_ASC_NODE":37.7626,"ARG_OF_PERICENTER":154.7045,"MEAN_ANOMALY":205.4544,"EPHEMERIS_TYPE":0,"CLASSIFICATION_TYPE":"U","NORAD_CAT_ID":64892,"ELEMENT_SET_NO":999,"REV_AT_EPOCH":6562,"BSTAR":0.00068609503,"MEAN_MOTION_DOT":0.00020121,"MEAN_MOTION_DDOT":0}]
